{
    "links": {
        "self": "http://www.neowsapp.com/rest/v1/neo/3560921?api_key=iIulBulltgU6a56xZRHN4H3l9WmuAYTsLGpBGhQ2"
    },
    "id": "3560921",
    "neo_reference_id": "3560921",
    "name": "(2011 GD2)",
    "designation": "2011 GD2",
    "nasa_jpl_url": "http://ssd.jpl.nasa.gov/sbdb.cgi?sstr=3560921",
    "absolute_magnitude_h": 25.6,
    "estimated_diameter": {
        "kilometers": {
            "estimated_diameter_min": 0.0201629919,
            "estimated_diameter_max": 0.0450858206
        },
        "meters": {
            "estimated_diameter_min": 20.1629919443,
            "estimated_diameter_max": 45.0858206172
        },
        "miles": {
            "estimated_diameter_min": 0.0125286985,
            "estimated_diameter_max": 0.0280150214
        },
        "feet": {
            "estimated_diameter_min": 66.1515504905,
            "estimated_diameter_max": 147.9193637137
        }
    },
    "is_potentially_hazardous_asteroid": false,
    "close_approach_data": [
        {
            "close_approach_date": "2011-04-18",
            "close_approach_date_full": "2011-Apr-18 05:13",
            "epoch_date_close_approach": 1303103580000,
            "relative_velocity": {
                "kilometers_per_second": "9.7015367157",
                "kilometers_per_hour": "34925.5321764358",
                "miles_per_hour": "21701.367479297"
            },
            "miss_distance": {
                "astronomical": "0.0539206009",
                "lunar": "20.9751137501",
                "kilometers": "8066407.043760083",
                "miles": "5012232.9166638254"
            },
            "orbiting_body": "Earth"
        }
    ],
    "orbital_data": {
        "orbit_id": "6",
        "orbit_determination_date": "2017-04-06 08:53:53",
        "first_observation_date": "2011-04-01",
        "last_observation_date": "2011-04-03",
        "data_arc_in_days": 2,
        "observations_used": 16,
        "orbit_uncertainty": "9",
        "minimum_orbit_intersection": ".0405498",
        "jupiter_tisserand_invariant": "3.587",
        "epoch_osculation": "2455654.5",
        "eccentricity": ".5222041356065523",
        "semi_major_axis": "2.07012074985079",
        "inclination": "4.062095285101304",
        "ascending_node_longitude": "2.508826432034845",
        "orbital_period": "1087.90743459193",
        "perihelion_distance": ".9890951330737703",
        "perihelion_argument": "236.2526453553187",
        "aphelion_distance": "3.15114636662781",
        "perihelion_time": "2455694.179866250075",
        "mean_anomaly": "346.8695153688465",
        "mean_motion": ".330910506310709",
        "equinox": "J2000",
        "orbit_class": {
            "orbit_class_type": "APO",
            "orbit_class_description": "Near-Earth asteroid orbits which cross the Earth’s orbit similar to that of 1862 Apollo",
            "orbit_class_range": "a (semi-major axis) > 1.0 AU; q (perihelion) < 1.017 AU"
        }
    },
    "is_sentry_object": false
}